{
  "type": "FeatureCollection",
  "features": [
    {
      "type": "Feature",
      "properties": {
        "norad_id": 44334,
        "name": "EUTELSAT 7C",
        "group": "eutelsat",
        "lat": 0.02135822368165959,
        "lon": -134.03461355052002,
        "alt_km": 35772.30979563511,
        "timestamp": "2025-12-06T09:34:16.589288+00:00",
        "meta_object_name": "EUTELSAT 7C",
        "meta_object_id": "2019-034B",
        "meta_epoch": "2025-12-05T22:17:22.382592",
        "meta_mean_motion": 1.00269873,
        "meta_eccentricity": 0.00034707,
        "meta_inclination": 0.0752,
        "meta_ra_of_asc_node": 179.1841,
        "meta_arg_of_pericenter": 60.4272,
        "meta_mean_anomaly": 176.6899,
        "meta_ephemeris_type": 0,
        "meta_classification_type": "U",
        "meta_norad_cat_id": 44334,
        "meta_element_set_no": 999,
        "meta_rev_at_epoch": 489,
        "meta_bstar": 0,
        "meta_mean_motion_dot": 5.7e-07,
        "meta_mean_motion_ddot": 0,
        "tle_line1": "1 44334U 19034B   25339.92873128  .00000057  00000+0  00000+0 0  9997",
        "tle_line2": "2 44334   0.0752 179.1841 0003470  60.4272 176.6899  1.00269873  4893"
      },
      "geometry": {
        "type": "Point",
        "coordinates": [
          -134.03461355052002,
          0.02135822368165959
        ]
      }
    },
    {
      "type": "Feature",
      "properties": {
        "norad_id": 44624,
        "name": "EUTELSAT 5 WEST B",
        "group": "eutelsat",
        "lat": -0.08084622171192879,
        "lon": -146.02864009348613,
        "alt_km": 35775.078455595896,
        "timestamp": "2025-12-06T09:34:16.589299+00:00",
        "meta_object_name": "EUTELSAT 5 WEST B",
        "meta_object_id": "2019-067A",
        "meta_epoch": "2025-12-05T22:14:00.204864",
        "meta_mean_motion": 1.00270341,
        "meta_eccentricity": 0.00035993,
        "meta_inclination": 0.0675,
        "meta_ra_of_asc_node": 333.8553,
        "meta_arg_of_pericenter": 281.7086,
        "meta_mean_anomaly": 147.9161,
        "meta_ephemeris_type": 0,
        "meta_classification_type": "U",
        "meta_norad_cat_id": 44624,
        "meta_element_set_no": 999,
        "meta_rev_at_epoch": 2249,
        "meta_bstar": 0,
        "meta_mean_motion_dot": -3.3e-07,
        "meta_mean_motion_ddot": 0,
        "tle_line1": "1 44624U 19067A   25339.92639126 -.00000033  00000+0  00000+0 0  9998",
        "tle_line2": "2 44624   0.0675 333.8553 0003599 281.7086 147.9161  1.00270341 22492"
      },
      "geometry": {
        "type": "Point",
        "coordinates": [
          -146.02864009348613,
          -0.08084622171192879
        ]
      }
    },
    {
      "type": "Feature",
      "properties": {
        "norad_id": 45027,
        "name": "EUTELSAT KONNECT",
        "group": "eutelsat",
        "lat": 0.02453091892574763,
        "lon": -133.84307314442543,
        "alt_km": 35783.13845722766,
        "timestamp": "2025-12-06T09:34:16.589311+00:00",
        "meta_object_name": "EUTELSAT KONNECT",
        "meta_object_id": "2020-005B",
        "meta_epoch": "2025-12-05T22:17:29.870880",
        "meta_mean_motion": 1.00267987,
        "meta_eccentricity": 0.00018557,
        "meta_inclination": 0.0712,
        "meta_ra_of_asc_node": 98.3329,
        "meta_arg_of_pericenter": 187.648,
        "meta_mean_anomaly": 130.555,
        "meta_ephemeris_type": 0,
        "meta_classification_type": "U",
        "meta_norad_cat_id": 45027,
        "meta_element_set_no": 999,
        "meta_rev_at_epoch": 2238,
        "meta_bstar": 0,
        "meta_mean_motion_dot": 5.8e-07,
        "meta_mean_motion_ddot": 0,
        "tle_line1": "1 45027U 20005B   25339.92881795  .00000058  00000+0  00000+0 0  9997",
        "tle_line2": "2 45027   0.0712  98.3329 0001855 187.6480 130.5550  1.00267987 22381"
      },
      "geometry": {
        "type": "Point",
        "coordinates": [
          -133.84307314442543,
          0.02453091892574763
        ]
      }
    },
    {
      "type": "Feature",
      "properties": {
        "norad_id": 49056,
        "name": "EUTELSAT QUANTUM",
        "group": "eutelsat",
        "lat": -0.03563224165646666,
        "lon": -93.30349661027094,
        "alt_km": 35770.747901402436,
        "timestamp": "2025-12-06T09:34:16.589322+00:00",
        "meta_object_name": "EUTELSAT QUANTUM",
        "meta_object_id": "2021-069B",
        "meta_epoch": "2025-12-05T21:42:38.692800",
        "meta_mean_motion": 1.00270217,
        "meta_eccentricity": 0.00037114,
        "meta_inclination": 0.0249,
        "meta_ra_of_asc_node": 38.192,
        "meta_arg_of_pericenter": 229.0136,
        "meta_mean_anomaly": 181.1111,
        "meta_ephemeris_type": 0,
        "meta_classification_type": "U",
        "meta_norad_cat_id": 49056,
        "meta_element_set_no": 999,
        "meta_rev_at_epoch": 1599,
        "meta_bstar": 0,
        "meta_mean_motion_dot": 1.35e-06,
        "meta_mean_motion_ddot": 0,
        "tle_line1": "1 49056U 21069B   25339.90461450  .00000135  00000+0  00000+0 0  9990",
        "tle_line2": "2 49056   0.0249  38.1920 0003711 229.0136 181.1111  1.00270217 15997"
      },
      "geometry": {
        "type": "Point",
        "coordinates": [
          -93.30349661027094,
          -0.03563224165646666
        ]
      }
    },
    {
      "type": "Feature",
      "properties": {
        "norad_id": 53765,
        "name": "EUTELSAT KONNECT VHTS",
        "group": "eutelsat",
        "lat": 0.02173138636441951,
        "lon": -138.2883108175052,
        "alt_km": 35771.5775481541,
        "timestamp": "2025-12-06T09:34:16.589333+00:00",
        "meta_object_name": "EUTELSAT KONNECT VHTS",
        "meta_object_id": "2022-110A",
        "meta_epoch": "2025-12-05T22:16:07.502304",
        "meta_mean_motion": 1.00277997,
        "meta_eccentricity": 0.00030294,
        "meta_inclination": 0.0606,
        "meta_ra_of_asc_node": 109.2727,
        "meta_arg_of_pericenter": 118.3682,
        "meta_mean_anomaly": 184.0741,
        "meta_ephemeris_type": 0,
        "meta_classification_type": "U",
        "meta_norad_cat_id": 53765,
        "meta_element_set_no": 999,
        "meta_rev_at_epoch": 488,
        "meta_bstar": 0,
        "meta_mean_motion_dot": 2.8e-07,
        "meta_mean_motion_ddot": 0,
        "tle_line1": "1 53765U 22110A   25339.92786461  .00000028  00000+0  00000+0 0  9995",
        "tle_line2": "2 53765   0.0606 109.2727 0003029 118.3682 184.0741  1.00277997  4888"
      },
      "geometry": {
        "type": "Point",
        "coordinates": [
          -138.2883108175052,
          0.02173138636441951
        ]
      }
    },
    {
      "type": "Feature",
      "properties": {
        "norad_id": 54048,
        "name": "EUTELSAT HOTBIRD 13F",
        "group": "eutelsat",
        "lat": -0.06309753188390678,
        "lon": -128.0257811340615,
        "alt_km": 35790.92097776927,
        "timestamp": "2025-12-06T09:34:16.589345+00:00",
        "meta_object_name": "EUTELSAT HOTBIRD 13F",
        "meta_object_id": "2022-134A",
        "meta_epoch": "2025-12-05T22:19:07.215168",
        "meta_mean_motion": 1.00271294,
        "meta_eccentricity": 0.00022422,
        "meta_inclination": 0.0469,
        "meta_ra_of_asc_node": 293.9062,
        "meta_arg_of_pericenter": 58.223,
        "meta_mean_anomaly": 70.6291,
        "meta_ephemeris_type": 0,
        "meta_classification_type": "U",
        "meta_norad_cat_id": 54048,
        "meta_element_set_no": 999,
        "meta_rev_at_epoch": 1143,
        "meta_bstar": 0,
        "meta_mean_motion_dot": 9.6e-07,
        "meta_mean_motion_ddot": 0,
        "tle_line1": "1 54048U 22134A   25339.92994462  .00000096  00000+0  00000+0 0  9993",
        "tle_line2": "2 54048   0.0469 293.9062 0002242  58.2230  70.6291  1.00271294 11433"
      },
      "geometry": {
        "type": "Point",
        "coordinates": [
          -128.0257811340615,
          -0.06309753188390678
        ]
      }
    },
    {
      "type": "Feature",
      "properties": {
        "norad_id": 54225,
        "name": "EUTELSAT HOTBIRD 13G",
        "group": "eutelsat",
        "lat": -0.02514911439985671,
        "lon": -127.9987354141137,
        "alt_km": 35780.5653783166,
        "timestamp": "2025-12-06T09:34:16.589356+00:00",
        "meta_object_name": "EUTELSAT HOTBIRD 13G",
        "meta_object_id": "2022-146A",
        "meta_epoch": "2025-12-05T15:28:18.292224",
        "meta_mean_motion": 1.00270321,
        "meta_eccentricity": 0.00019255,
        "meta_inclination": 0.0461,
        "meta_ra_of_asc_node": 235.0424,
        "meta_arg_of_pericenter": 313.1322,
        "meta_mean_anomaly": 131.5912,
        "meta_ephemeris_type": 0,
        "meta_classification_type": "U",
        "meta_norad_cat_id": 54225,
        "meta_element_set_no": 999,
        "meta_rev_at_epoch": 552,
        "meta_bstar": 0,
        "meta_mean_motion_dot": 9.7e-07,
        "meta_mean_motion_ddot": 0,
        "tle_line1": "1 54225U 22146A   25339.64465616  .00000097  00000+0  00000+0 0  9997",
        "tle_line2": "2 54225   0.0461 235.0424 0001925 313.1322 131.5912  1.00270321  5523"
      },
      "geometry": {
        "type": "Point",
        "coordinates": [
          -127.9987354141137,
          -0.02514911439985671
        ]
      }
    }
  ]
}